OBJECT_NAME,OBJECT_ID,EPOCH,MEAN_MOTION,ECCENTRICITY,INCLINATION,RA_OF_ASC_NODE,ARG_OF_PERICENTER,MEAN_ANOMALY,EPHEMERIS_TYPE,CLASSIFICATION_TYPE,NORAD_CAT_ID,ELEMENT_SET_NO,REV_AT_EPOCH,BSTAR,MEAN_MOTION_DOT,MEAN_MOTION_DDOT
COSMOS 2507 (RODNIK-S 13),2015-050A,2026-06-30T12:19:52.847040,12.42927230,.00096035,82.4927,71.3734,327.7674,32.2818,0,U,40920,999,48851,.73875739E-3,.112E-5,0
COSMOS 2508 (RODNIK-S 14),2015-050B,2026-06-30T13:11:12.479136,12.42914600,.00146116,82.4879,69.8512,358.9321,1.1725,0,U,40921,999,48850,.50563542E-3,.8E-6,0
COSMOS 2509 (RODNIK-S 15),2015-050C,2026-06-30T13:40:58.181376,12.42884507,.00152758,82.4887,69.9421,15.4376,344.7167,0,U,40922,999,48854,.13374701E-2,.195E-5,0
LINGQIAO VIDEO A,2015-057B,2026-06-30T13:38:39.361632,14.77410370,.00154549,97.6618,175.7106,222.6678,137.3334,0,U,40959,999,57738,.10970835E-3,.733E-5,0
LINGQIAO VIDEO B,2015-057C,2026-06-30T13:03:40.898304,14.77514877,.00156498,97.6583,176.8473,222.7281,137.2714,0,U,40960,999,57742,.77166064E-4,.503E-5,0
JILIN-1,2015-057D,2026-06-30T13:14:34.275840,14.78181266,.00159128,97.6510,180.2551,215.6262,144.3889,0,U,40961,999,57758,.12206726E-3,.837E-5,0
FOX-1A (AO-85),2015-058D,2026-06-30T13:35:05.245152,14.91023562,.01312928,64.7741,237.4052,51.3883,309.8898,0,U,40967,999,11556,.18700881E-3,.2007E-4,0
SINOD-D 1,2015-058E,2026-06-30T12:22:20.343072,14.95981461,.01199547,64.7731,217.1713,47.8242,313.2983,0,U,40968,999,11865,.26011595E-3,.3198E-4,0
ELEKTRO-L 2,2015-074A,2026-06-30T03:05:16.247328,1.00271247,.0000706,6.7257,70.3668,276.5342,323.0657,0,U,41105,999,3863,0,-.112E-5,0
DAMPE,2015-078A,2026-06-30T13:38:56.079168,15.30818996,.00131245,97.4552,187.1015,35.3354,324.8754,0,U,41173,999,58659,.38568268E-4,.1073E-4,0
ORBCOMM FM110,2015-081D,2026-06-30T01:08:38.673312,14.58899856,.00027678,47.0026,300.6348,151.8640,208.2396,0,U,41182,999,55950,.19041036E-3,.729E-5,0
ORBCOMM FM112,2015-081F,2026-06-30T11:55:57.112320,14.58917672,.00041302,46.9971,207.3067,269.8419,90.1993,0,U,41184,999,56089,.10947037E-3,.347E-5,0
ORBCOMM FM113,2015-081G,2026-06-30T11:22:55.178400,14.58869516,.00026286,46.9989,207.7982,270.1275,89.9309,0,U,41185,999,56087,.95535175E-4,.28E-5,0
ORBCOMM FM108,2015-081J,2026-06-29T19:40:59.110176,14.58889060,.00032103,47.0046,122.4680,268.1018,91.9500,0,U,41187,999,56192,.15104351E-3,.543E-5,0
ORBCOMM FM117,2015-081K,2026-06-30T03:04:33.189024,14.58876871,.00036999,47.0006,119.6420,273.2497,86.7965,0,U,41188,999,56201,.13966578E-3,.489E-5,0
ORBCOMM FM116,2015-081L,2026-06-30T12:27:51.206688,14.58896557,.00008987,47.0006,207.5827,181.1835,178.9049,0,U,41189,999,56088,.10264524E-3,.314E-5,0
HORYU-4,2016-012D,2026-06-29T19:43:00.328512,16.16169270,.00099169,30.9811,345.1963,343.8353,16.1997,0,U,41340,999,57284,.11623376E-2,.1724866E-1,.25694954E-2
ZIYUAN 3-02 (ZY 3-02),2016-033A,2026-06-30T14:35:51.406368,15.21303987,.00127302,97.3836,257.1243,238.6293,121.3698,0,U,41556,999,56002,.22600635E-3,.4997E-4,0
CARTOSAT-2C,2016-040A,2026-06-30T13:30:20.183904,15.19299653,.00104586,97.4483,241.3567,91.3022,268.9410,0,U,41599,999,55574,.34224511E-3,.7167E-4,0
LAPAN-A3,2016-040E,2026-06-30T13:42:18.910944,15.33189728,.00092113,97.1489,177.2776,337.8976,22.1869,0,U,41603,999,55686,.10581941E-3,.3321E-4,0
GAOFEN-3,2016-049A,2026-06-30T13:02:21.687648,14.42217440,.00016454,98.4006,189.1273,93.9780,266.1598,0,U,41727,999,52057,.43869811E-4,.101E-5,0
CAS-2T & KS-1Q,2016-066G,2026-06-30T04:36:35.427744,14.44735570,.03428454,98.3819,256.7796,90.1573,273.8901,0,U,41847,999,50667,.22693892E-3,.1573E-4,0
YUNHAI-1 01,2016-068A,2026-06-30T13:51:44.877600,14.32432448,.00054575,98.5839,192.4575,22.7891,337.3534,0,U,41857,999,50374,.1726937E-3,.423E-5,0
RESOURCESAT-2A,2016-074A,2026-06-30T12:19:52.791744,14.21605505,.00031213,98.7532,254.9092,58.0989,302.0492,0,U,41877,999,49619,.12739815E-3,.235E-5,0
